[{"OBJECT_NAME":"STARLINK-2535","OBJECT_ID":"2021-036V","EPOCH":"2026-03-09T06:36:55.569888","MEAN_MOTION":15.30191983,"ECCENTRICITY":0.00015185,"INCLINATION":53.1607,"RA_OF_ASC_NODE":77.4642,"ARG_OF_PERICENTER":97.2274,"MEAN_ANOMALY":262.89,"EPHEMERIS_TYPE":0,"CLASSIFICATION_TYPE":"U","NORAD_CAT_ID":48295,"ELEMENT_SET_NO":999,"REV_AT_EPOCH":26834,"BSTAR":-1.473769e-6,"MEAN_MOTION_DOT":-4.03e-6,"MEAN_MOTION_DDOT":0},{"OBJECT_NAME":"NUSAT-35 (WILLIAMINA)","OBJECT_ID":"2023-001AR","EPOCH":"2026-03-09T22:28:40.425600","MEAN_MOTION":15.3245616,"ECCENTRICITY":0.00136635,"INCLINATION":97.1993,"RA_OF_ASC_NODE":124.278,"ARG_OF_PERICENTER":97.0313,"MEAN_ANOMALY":263.2484,"EPHEMERIS_TYPE":0,"CLASSIFICATION_TYPE":"U","NORAD_CAT_ID":55048,"ELEMENT_SET_NO":999,"REV_AT_EPOCH":17719,"BSTAR":0.00053479647,"MEAN_MOTION_DOT":0.0001675,"MEAN_MOTION_DDOT":0}]
